ONEWEB-0582             
1 54649U 22166H   26043.68633377  .00000019  00000+0  14943-4 0  9997
2 54649  87.9179 268.8119 0001546  74.1853 285.9451 13.21823753155077
ONEWEB-0583             
1 54650U 22166J   26043.69785460 -.00000069  00000+0 -19798-3 0  9990
2 54650  87.9176 268.8334 0001491  76.3351 283.7949 13.21824420155082
ONEWEB-0584             
1 54651U 22166K   26043.64191113  .00000019  00000+0  14292-4 0  9990
2 54651  87.9183 268.8319 0001705  75.4593 284.6730 13.21824236155061
ONEWEB-0585             
1 54652U 22166L   26043.59089910  .00000026  00000+0  31312-4 0  9996
2 54652  87.9181 268.8263 0001628  92.3946 267.7374 13.21826347155063
ONEWEB-0586             
1 54653U 22166M   26043.67976774 -.00000006  00000+0 -46289-4 0  9998
2 54653  87.9184 268.8334 0001500  80.3329 279.7975 13.21825953155070
ONEWEB-0587             
1 54654U 22166N   26043.68964416  .00000143  00000+0  31402-3 0  9990
2 54654  87.9193 268.7935 0001671 102.1031 258.0290 13.21825905155234
ONEWEB-0589             
1 54655U 22166P   26043.60077179 -.00000020  00000+0 -80987-4 0  9993
2 54655  87.9182 268.8389 0001894  59.0587 301.0733 13.21824637155085
ONEWEB-0590             
1 54656U 22166Q   26043.62531906  .00000016  00000+0  62253-5 0  9999
2 54656  87.9184 268.8120 0002019  85.9807 274.1558 13.21824442155072
ONEWEB-0591             
1 54657U 22166R   26043.63697852  .00000072  00000+0  14231-3 0  9997
2 54657  87.9181 268.8327 0001643  82.6925 277.4395 13.21826105155103
ONEWEB-0592             
1 54658U 22166S   26043.64027914  .00000082  00000+0  16747-3 0  9990
2 54658  87.9191 268.8010 0001603  85.1713 274.9604 13.21825886154988
ONEWEB-0593             
1 54659U 22166T   26043.58760874  .00000023  00000+0  24013-4 0  9994
2 54659  87.9181 268.8321 0001489  83.0743 277.0560 13.21825089155087
ONEWEB-0594             
1 54660U 22166U   26043.68305620 -.00000017  00000+0 -71623-4 0  9995
2 54660  87.9178 268.8320 0001530  89.3254 270.8056 13.21825957155116
ONEWEB-0595             
1 54661U 22166V   26043.58431897  .00000024  00000+0  25543-4 0  9997
2 54661  87.9177 268.8226 0001691  91.5975 268.5353 13.21824344155072
ONEWEB-0596             
1 54662U 22166W   26043.63368479  .00000080  00000+0  16266-3 0  9992
2 54662  87.9184 268.8311 0001666  92.9517 267.1808 13.21825956155086
ONEWEB-0597             
1 54663U 22166X   26043.61557987  .00000025  00000+0  29119-4 0  9996
2 54663  87.9182 268.8404 0001577  85.2456 274.8858 13.21824476155082
ONEWEB-0600             
1 54664U 22166Y   26043.59749372 -.00000794  00000+0 -19549-2 0  9994
2 54664  87.9185 268.8351 0001357  78.9096 281.2191 13.21814874155052
ONEWEB-0601             
1 54665U 22166Z   26043.58924975 -.00000039  00000+0 -12611-3 0  9994
2 54665  87.9182 268.8542 0001658  75.7319 284.3999 13.21824296155249
ONEWEB-0602             
1 54666U 22166AA  26043.62956876  .00000081  00000+0  16545-3 0  9990
2 54666  87.9185 268.8512 0001265  84.3411 275.7867 13.21825911155099
ONEWEB-0603             
1 54667U 22166AB  26043.63532679  .00000051  00000+0  91263-4 0  9991
2 54667  87.9196 268.7939 0001558  81.2458 278.8852 13.21825648155024
ONEWEB-0604             
1 54668U 22166AC  26043.62380923  .00000042  00000+0  70368-4 0  9997
2 54668  87.9186 268.8112 0001591  82.7804 277.3511 13.21825888154982
ONEWEB-0605             
1 54669U 22166AD  26043.69293053  .00000047  00000+0  82963-4 0  9991
2 54669  87.9179 268.8236 0001940  72.3970 287.7376 13.21826544155063
ONEWEB-0606             
1 54670U 22166AE  26043.63861962  .00000032  00000+0  45173-4 0  9993
2 54670  87.9183 268.8469 0001680  90.9591 269.1735 13.21824440155116
ONEWEB-0607             
1 54671U 22166AF  26043.60570962  .00000030  00000+0  40722-4 0  9991
2 54671  87.9184 268.8166 0001515  80.5315 279.5990 13.21824217155084
ONEWEB-0608             
1 54672U 22166AG  26043.68799404  .00000102  00000+0  21662-3 0  9995
2 54672  87.9185 268.7921 0001701  70.7907 289.3411 13.21825770155104
ONEWEB-0610             
1 54673U 22166AH  26043.59254854  .00000023  00000+0  23085-4 0  9995
2 54673  87.9180 268.8389 0001705  67.3436 292.7878 13.21826569154990
ONEWEB-0611             
1 54674U 22166AJ  26043.58596449 -.00000025  00000+0 -91964-4 0  9999
2 54674  87.9179 268.8362 0001552  93.6212 266.5099 13.21824505154985
ONEWEB-0612             
1 54675U 22166AK  26043.59913440 -.00000180  00000+0 -46800-3 0  9995
2 54675  87.9186 268.8162 0001530  82.5547 277.5760 13.21825796154975
ONEWEB-0615             
1 54676U 22166AL  26043.57937718 -.00000005  00000+0 -42939-4 0  9994
2 54676  87.9185 268.8451 0001597  82.4355 277.6960 13.21824707154980
ONEWEB-0655             
1 54677U 22166AM  26043.63039045  .00000059  00000+0  11112-3 0  9993
2 54677  87.9186 268.8377 0001332  79.8892 280.2392 13.21824514154987
ONEWEB-0659             
1 54678U 22166AN  26043.57115309  .00000022  00000+0  21867-4 0  9994
2 54678  87.9211 268.8503 0001579  90.3101 269.8214 13.21824279155066
ONEWEB-0685             
1 54679U 22166AP  26043.57128949  .00000002  00000+0 -27293-4 0  9997
2 54679  87.9181 268.8464 0001533  78.5926 281.5380 13.21810135154950
ONEWEB-0712             
1 54680U 22166AQ  26043.57698468  .00000156  00000+0  37370-3 0  9992
2 54680  87.9004 253.5729 0000970  81.3081 278.8160 13.16594927155665
ONEWEB-0714             
1 54681U 22166AR  26043.57773204 -.00000045  00000+0 -14133-3 0  9996
2 54681  87.9182 268.8392 0001410  77.5855 282.5436 13.21825046155072
DONGPO 09               
1 54685U 22167D   26043.95478631  .00013817  00000+0  43352-3 0  9993
2 54685  97.6762 209.7776 0002694 187.8356 172.2844 15.33161061176395
DONGPO 08               
1 54686U 22167E   26043.92703396  .00013282  00000+0  44805-3 0  9990
2 54686  97.6718 207.4882 0008038 244.1628 115.8784 15.30813390176298
2022-167F               
1 54687U 22167F   26043.96158696  .00064981  00000+0  67443-3 0  9997
2 54687  97.6205 219.6309 0002068 142.0990 218.0414 15.64446518177269
DONGPO 10               
1 54689U 22167H   26043.93002778  .00013421  00000+0  44282-3 0  9994
2 54689  97.6804 209.1539 0005228 186.6032 173.5141 15.31543359176320
JILIN-1 GAOFEN 03D50    
1 54690U 22167J   26043.92370650  .00013592  00000+0  44857-3 0  9999
2 54690  97.6683 207.0441 0005771 180.3750 179.7487 15.31529056176315
JIAOTONG 5 (HEAD-2H)    
1 54691U 22167K   26043.95388402  .00086858  00000+0  86654-3 0  9993
2 54691  97.6180 224.1205 0001847  64.8086 295.3364 15.65369639177501
JILIN-1 GAOFEN 03D47    
1 54692U 22167L   26043.92868642  .00013109  00000+0  44022-3 0  9992
2 54692  97.6789 208.7339 0007897 193.4646 166.6385 15.30962434176310
JILIN-1 GAOFEN 03D49    
1 54694U 22167N   26043.95692491  .00014886  00000+0  45356-3 0  9998
2 54694  97.6668 208.8511 0005703 212.1923 147.8972 15.34064226176423
JILIN-1 GAOFEN 03D48    
1 54695U 22167P   26043.91954616  .00013718  00000+0  44364-3 0  9996
2 54695  97.6734 208.4954 0006599 193.8948 166.2112 15.32174889176348
SHIYAN-20A (SY-20A)     
1 54699U 22169A   26043.94516226  .00000063  00000+0  77880-4 0  9995
2 54699  59.9963 291.0371 0019159 110.5739 249.7354 14.29485286165599
SHIYAN-20B (SY-20B)     
1 54700U 22169B   26043.95004479  .00000093  00000+0  89482-4 0  9995
2 54700  59.9953 291.0934 0024265 117.9095 242.4401 14.29493808165598
GALAXY 35 (G-35)        
1 54741U 22170A   26043.88326846 -.00000155  00000+0  00000+0 0  9993
2 54741   0.0117 125.1177 0001791 203.0082  39.6427  1.00273252 11644
GALAXY 36 (G-36)        
1 54742U 22170B   26043.88413513 -.00000178  00000+0  00000+0 0  9997
2 54742   0.0169 175.4333 0001731 219.7643 336.9988  1.00271783 11524
METEOSAT-12 (MTG-I1)    
1 54743U 22170C   26043.92058748 -.00000001  00000+0  00000+0 0  9993
2 54743   0.7187  26.1086 0001782 278.2177 169.6698  1.00271963 11739
YAOGAN-36 04A           
1 54746U 22171A   26043.92511391  .00007134  00000+0  33187-3 0  9994
2 54746  34.9900 279.6157 0008442 261.4829  98.4928 15.19228007176201
YAOGAN-36 04B           
1 54748U 22171C   26043.93539302  .00010716  00000+0  44546-3 0  9990
2 54748  35.0019 256.3023 0008257 165.1612 194.9347 15.22990373176432
YAOGAN-36 04C           
1 54750U 22171E   26043.91862561  .00010949  00000+0  37855-3 0  9990
2 54750  34.9781 254.6544 0006177  43.0846 317.0353 15.29095205176432
SHIYAN-21 (SY-21)       
1 54752U 22172A   26043.63252891  .00011332  00000+0  40830-3 0  9995
2 54752  35.9747 131.3856 0023221 219.8682 140.0346 15.27618742176626
SWOT                    
1 54754U 22173A   26043.94365493  .00000043  00000+0  30565-4 0  9997
2 54754  77.6093 203.0196 0000462 333.0832  27.0296 14.00173539161764
O3B MPOWER F1           
1 54755U 22174A   26043.92226865 -.00000021  00000+0  00000+0 0  9999
2 54755   0.0640 352.9235 0005010 347.6148 220.2247  5.00103152 59141
O3B MPOWER F2           
1 54756U 22174B   26032.38709024 -.00000025  00000+0  00000+0 0  9995
2 54756   0.0645 350.4228 0001797 213.7335 155.8278  5.00731378 58649
STARLINK-5464           
1 54758U 22175A   26043.69804325 -.00001357  00000+0 -67230-4 0  9997
2 54758  53.2170 151.5039 0001097  96.9293 263.1824 15.08835284176215
STARLINK-5215           
1 54759U 22175B   26043.70174103  .00000257  00000+0  34235-4 0  9999
2 54759  53.2184 151.5228 0001743 115.5762 244.5410 15.08836138176211
STARLINK-5220           
1 54760U 22175C   26043.69942197  .00002409  00000+0  16939-3 0  9996
2 54760  53.2164 156.4976 0001385  83.2646 276.8504 15.08836801176140
STARLINK-5202           
1 54761U 22175D   26043.70311670  .00003976  00000+0  26779-3 0  9998
2 54761  53.2163 156.5187 0001003  69.7498 290.3601 15.08837955176146
STARLINK-5214           
1 54762U 22175E   26043.62212689  .00000968  00000+0  78925-4 0  9999
2 54762  53.2173 156.7286 0001310  87.3823 272.7319 15.08842029176136
